{
  "type": "FeatureCollection",
  "features": [
    {"type":"Feature","properties":{"city":"NASHVILLE","zip":"37201","land_use_description":"VACANT COMMERCIAL LAND","radius":"4400","site_name":"Woodland St & Gay St","address":"0 1ST AVE N","siren":"Eclipse 8","mounted_height":"50"},"geometry":{"type":"Point","coordinates":[-86.776981,36.166543]}},{"type":"Feature","properties":{"city":"NASHVILLE","zip":"37203","land_use_description":"PARK OR RECREATION","radius":"14700","site_name":"Watkins Park","address":"616 17TH AVE N","siren":"508","mounted_height":"50"},"geometry":{"type":"Point","coordinates":[-86.799817,36.16229]}},{"type":"Feature","properties":{"city":"WHITES CREEK","zip":"37189","land_use_description":"SCHOOL OR COLLEGE","radius":"4400","site_name":"Alex Green Elementary","address":"3921 LLOYD RD","siren":"Eclipse 8","mounted_height":"50"},"geometry":{"type":"Point","coordinates":[-86.831647,36.252586]}},{"type":"Feature","properties":{"city":"ANTIOCH","zip":"37013","land_use_description":"STRIP SHOPPING CENTER","radius":"4400","site_name":"Bell Road @ Bell Forge Rd","address":"5432 BELL FORGE LN E","siren":"Eclipse 8","mounted_height":"50"},"geometry":{"type":"Point","coordinates":[-86.646603,36.05049]}},{"type":"Feature","properties":{"city":"NASHVILLE","zip":"37221","land_use_description":"SCHOOL OR COLLEGE","radius":"14700","site_name":"Bellevue Middle School","address":"655 COLICE JEANNE RD","siren":"508","mounted_height":"50"},"geometry":{"type":"Point","coordinates":[-86.933764,36.06935]}},{"type":"Feature","properties":{"city":"NASHVILLE","zip":"37207","land_use_description":"PARK OR RECREATION","radius":"4400","site_name":"Cleveland Park","address":"927 N 6TH ST","siren":"Eclipse 8","mounted_height":"50"},"geometry":{"type":"Point","coordinates":[-86.761289,36.187176]}},{"type":"Feature","properties":{"city":"NASHVILLE","zip":"37204","land_use_description":"PARK OR RECREATION","radius":"4400","site_name":"Sevier Park","address":"3021 LEALAND LN","siren":"Eclipse 8","mounted_height":"50"},"geometry":{"type":"Point","coordinates":[-86.788514,36.119241]}},{"type":"Feature","properties":{"city":"NASHVILLE","zip":"37211","land_use_description":"SCHOOL OR COLLEGE","radius":"4400","site_name":"McMurray Middle School","address":"520 MCMURRAY DR","siren":"Eclipse 8","mounted_height":"50"},"geometry":{"type":"Point","coordinates":[-86.722841,36.05733]}},{"type":"Feature","properties":{"city":"NASHVILLE","zip":"37209","land_use_description":"SCHOOL OR COLLEGE","radius":"14700","site_name":"Gower Elementary","address":"650 OLD HICKORY BLVD","siren":"508","mounted_height":"50"},"geometry":{"type":"Point","coordinates":[-86.922722,36.114556]}},{"type":"Feature","properties":{"city":"NASHVILLE","zip":"37206","land_use_description":"SCHOOL OR COLLEGE","radius":"4400","site_name":"Kirkpatrick Elementary","address":"1000 SEVIER ST","siren":"Eclipse 8","mounted_height":"50"},"geometry":{"type":"Point","coordinates":[-86.752617,36.167864]}},{"type":"Feature","properties":{"city":"NASHVILLE","zip":"37211","land_use_description":"PARK OR RECREATION","radius":"4400","site_name":"Grassmere Park","address":"3777 NOLENSVILLE PIKE","siren":"Eclipse 8","mounted_height":"50"},"geometry":{"type":"Point","coordinates":[-86.733904,36.089776]}},{"type":"Feature","properties":{"city":"BELLEVUE","zip":null,"land_use_description":"RIGHT OF WAY","radius":"14700","site_name":"Highway 100","address":"HWY 100 & OLD HARDING PK","siren":"508","mounted_height":"50"},"geometry":{"type":"Point","coordinates":[-87.023534,36.025092]}},{"type":"Feature","properties":{"city":"NASHVILLE","zip":"37214","land_use_description":"CONVENIENCE MARKET WITH GAS","radius":"4400","site_name":"Percy Priest Reservoir","address":"3696 BELL RD","siren":"Eclipse 8","mounted_height":"50"},"geometry":{"type":"Point","coordinates":[-86.625475,36.152135]}},{"type":"Feature","properties":{"city":"OLD HICKORY","zip":"37138","land_use_description":"SCHOOL OR COLLEGE","radius":"4400","site_name":"Dupont Hadley Middle School","address":"1901 OLD HICKORY BLVD","siren":"Eclipse 8","mounted_height":"50"},"geometry":{"type":"Point","coordinates":[-86.643694,36.250059]}},{"type":"Feature","properties":{"city":"NASHVILLE","zip":"37203","land_use_description":"PARK OR RECREATION","radius":"4400","site_name":"Fort Negley","address":"534 CHESTNUT ST","siren":"Eclipse 8","mounted_height":"50"},"geometry":{"type":"Point","coordinates":[-86.77574,36.142765]}},{"type":"Feature","properties":{"city":"GOODLETTSVILLE","zip":"37072","land_use_description":"SCHOOL OR COLLEGE","radius":"4400","site_name":"Old Center Elementary","address":"1245 DICKERSON PIKE","siren":"Eclipse 8","mounted_height":"50"},"geometry":{"type":"Point","coordinates":[-86.737886,36.290944]}},{"type":"Feature","properties":{"city":"NASHVILLE","zip":"37204","land_use_description":"PARK OR RECREATION","radius":"14700","site_name":"Berry Hill Playground Park","address":"0 E. IRIS DR","siren":"508","mounted_height":"50"},"geometry":{"type":"Point","coordinates":[-86.762625,36.114229]}},{"type":"Feature","properties":{"city":"NASHVILLE","zip":"37206","land_use_description":"PARK OR RECREATION","radius":"4400","site_name":"Shelby Park","address":"2009 SEVIER ST","siren":"Eclipse 8","mounted_height":"50"},"geometry":{"type":"Point","coordinates":[-86.732738,36.166865]}},{"type":"Feature","properties":{"city":"ANTIOCH","zip":"37013","land_use_description":"SINGLE FAMILY","radius":"4400","site_name":"OHB @ Pettus Road (Woodbine Baptist)","address":"13951 OLD HICKORY BLVD","siren":"Eclipse 8","mounted_height":"50"},"geometry":{"type":"Point","coordinates":[-86.665626,36.007857]}},{"type":"Feature","properties":{"city":"NASHVILLE","zip":"37211","land_use_description":"SCHOOL OR COLLEGE","radius":"4400","site_name":"Haywood Elementary","address":"3790 TURLEY DR","siren":"Eclipse 8","mounted_height":"50"},"geometry":{"type":"Point","coordinates":[-86.708628,36.074698]}},{"type":"Feature","properties":{"city":"ASHLAND CITY","zip":"37015","land_use_description":"VACANT COMMERCIAL LAND","radius":"14700","site_name":"Beaman Park","address":"0 WHITLOW MOUNTAIN RD","siren":"508","mounted_height":"50"},"geometry":{"type":"Point","coordinates":[-86.893877,36.262656]}},{"type":"Feature","properties":{"city":"NASHVILLE","zip":"37207","land_use_description":"SCHOOL OR COLLEGE","radius":"4400","site_name":"KIPP Nashville College Prep Middle School","address":"3410 KNIGHT DR","siren":"Eclipse 8","mounted_height":"50"},"geometry":{"type":"Point","coordinates":[-86.803233,36.237061]}},{"type":"Feature","properties":{"city":"NASHVILLE","zip":"37217","land_use_description":"SCHOOL OR COLLEGE","radius":"4400","site_name":"Una Elementary","address":"2018 OLD MURFREESBORO PIKE","siren":"Eclipse 8","mounted_height":"50"},"geometry":{"type":"Point","coordinates":[-86.653749,36.095772]}},{"type":"Feature","properties":{"city":"NASHVILLE","zip":"37218","land_use_description":"HOSPITAL OR CLINIC","radius":"14700","site_name":"Metro Bordeaux","address":"1010 CAMILLA CALDWELL LN","siren":"508","mounted_height":"50"},"geometry":{"type":"Point","coordinates":[-86.849907,36.17739]}},{"type":"Feature","properties":{"city":"OLD HICKORY","zip":"37138","land_use_description":"SCHOOL OR COLLEGE","radius":"4400","site_name":"Andrew Jackson Elementary","address":"110 SHUTE LN","siren":"Eclipse 8","mounted_height":"50"},"geometry":{"type":"Point","coordinates":[-86.624358,36.231573]}},{"type":"Feature","properties":{"city":"NASHVILLE","zip":"37217","land_use_description":"SCHOOL OR COLLEGE","radius":"4400","site_name":"Lakeview Elementary","address":"455 RURAL HILL RD","siren":"Eclipse 8","mounted_height":"50"},"geometry":{"type":"Point","coordinates":[-86.629396,36.078786]}},{"type":"Feature","properties":{"city":"NASHVILLE","zip":"37208","land_use_description":"SCHOOL OR COLLEGE","radius":"4400","site_name":"Buena Vista Elementary","address":"1531 9TH AVE N","siren":"Eclipse 8","mounted_height":"50"},"geometry":{"type":"Point","coordinates":[-86.798536,36.178167]}},{"type":"Feature","properties":{"city":"NASHVILLE","zip":"37214","land_use_description":"PARK OR RECREATION","radius":"14700","site_name":"Two Rivers Park","address":"2320 TWO RIVERS PKWY","siren":"508","mounted_height":"50"},"geometry":{"type":"Point","coordinates":[-86.686495,36.18633]}},{"type":"Feature","properties":{"city":"HERMITAGE","zip":"37076","land_use_description":"SCHOOL OR COLLEGE","radius":"4400","site_name":"Hermitage Elementary","address":"3800 PLANTATION DR","siren":"Eclipse 8","mounted_height":"50"},"geometry":{"type":"Point","coordinates":[-86.634995,36.197389]}},{"type":"Feature","properties":{"city":"NASHVILLE","zip":"37208","land_use_description":"PARK OR RECREATION","radius":"14700","site_name":"Morgan Park Greenway","address":"1515 3RD AVE N","siren":"508","mounted_height":"50"},"geometry":{"type":"Point","coordinates":[-86.788814,36.181198]}},{"type":"Feature","properties":{"city":"NASHVILLE","zip":"37207","land_use_description":"SCHOOL OR COLLEGE","radius":"4400","site_name":"Haynes Middle School","address":"3230 BRICK CHURCH PIKE","siren":"Eclipse 8","mounted_height":"50"},"geometry":{"type":"Point","coordinates":[-86.790514,36.206253]}},{"type":"Feature","properties":{"city":"MADISON","zip":"37115","land_use_description":"PARK OR RECREATION","radius":"4400","site_name":"Madison Park","address":"550 N DUPONT AVE","siren":"Eclipse 8","mounted_height":"50"},"geometry":{"type":"Point","coordinates":[-86.702181,36.266503]}},{"type":"Feature","properties":{"city":"NASHVILLE","zip":"37215","land_use_description":"SCHOOL OR COLLEGE","radius":"4400","site_name":"Percy Priest School","address":"1700 OTTER CREEK RD","siren":"Eclipse 8","mounted_height":"50"},"geometry":{"type":"Point","coordinates":[-86.832695,36.061662]}},{"type":"Feature","properties":{"city":"MADISON","zip":"37115","land_use_description":"SCHOOL OR COLLEGE","radius":"4400","site_name":"Gateway Elementary","address":"1524 MONTICELLO AVE","siren":"Eclipse 8","mounted_height":"50"},"geometry":{"type":"Point","coordinates":[-86.710374,36.292445]}},{"type":"Feature","properties":{"city":"NASHVILLE","zip":"37216","land_use_description":"SCHOOL OR COLLEGE","radius":"4400","site_name":"Inglewood Elementary","address":"1700 RIVERSIDE DR","siren":"Eclipse 8","mounted_height":"50"},"geometry":{"type":"Point","coordinates":[-86.723529,36.197421]}},{"type":"Feature","properties":{"city":"ANTIOCH","zip":"37013","land_use_description":"VACANT RURAL LAND","radius":"14700","site_name":"Metro Water Smith Springs","address":"5758 CANE RIDGE RD","siren":"508","mounted_height":"50"},"geometry":{"type":"Point","coordinates":[-86.620247,36.089291]}},{"type":"Feature","properties":{"city":"WHITES CREEK","zip":"37189","land_use_description":"SCHOOL OR COLLEGE","radius":"14700","site_name":"Whites Creek High School","address":"4640 LICKTON PIKE","siren":"508","mounted_height":"50"},"geometry":{"type":"Point","coordinates":[-86.819758,36.274414]}},{"type":"Feature","properties":{"city":"NASHVILLE","zip":"37218","land_use_description":"PARK OR RECREATION","radius":"14700","site_name":"Bells Bend Park","address":"4107 OLD HICKORY BLVD","siren":"508","mounted_height":"50"},"geometry":{"type":"Point","coordinates":[-86.920158,36.153786]}},{"type":"Feature","properties":{"city":"NASHVILLE","zip":"37203","land_use_description":"PARK OR RECREATION","radius":"4400","site_name":"Centennial Park","address":"2500 WEST END AVE","siren":"Eclipse 8","mounted_height":"50"},"geometry":{"type":"Point","coordinates":[-86.811924,36.148852]}},{"type":"Feature","properties":{"city":"NASHVILLE","zip":"37209","land_use_description":"PARK OR RECREATION","radius":"4400","site_name":"Richland Park","address":"4601 CHARLOTTE AVE","siren":"Eclipse 8","mounted_height":"50"},"geometry":{"type":"Point","coordinates":[-86.84504,36.151789]}},{"type":"Feature","properties":{"city":"HERMITAGE","zip":"37076","land_use_description":"PARK OR RECREATION","radius":"14700","site_name":"Hermitage Park","address":"3701 JAMES KAY LN","siren":"508","mounted_height":"50"},"geometry":{"type":"Point","coordinates":[-86.61434,36.175582]}},{"type":"Feature","properties":{"city":"NASHVILLE","zip":"37217","land_use_description":"METRO OTHER THAN OFC, SCHOOL,HOSP, OR PARK","radius":"14700","site_name":"Metro Water Cane Ridge Reservoir","address":"2749 SMITH SPRINGS RD","siren":"508","mounted_height":"50"},"geometry":{"type":"Point","coordinates":[-86.634805,36.022074]}},{"type":"Feature","properties":{"city":"NASHVILLE","zip":"37205","land_use_description":"FIRE STATION","radius":"14700","site_name":"Fire Station #7","address":"638 DAVIDSON RD","siren":"508","mounted_height":"50"},"geometry":{"type":"Point","coordinates":[-86.886749,36.11808]}},{"type":"Feature","properties":{"city":"NASHVILLE","zip":"37214","land_use_description":"CLUB/UNION HALL/LODGE","radius":"4400","site_name":"Donelson Middle School","address":"110 STEWARTS FERRY PIKE","siren":"Eclipse 8","mounted_height":"50"},"geometry":{"type":"Point","coordinates":[-86.656735,36.165564]}},{"type":"Feature","properties":{"city":"NASHVILLE","zip":"37207","land_use_description":"PARK OR RECREATION","radius":"4400","site_name":"McFerrin Park","address":"301 BERRY ST","siren":"Eclipse 8","mounted_height":"50"},"geometry":{"type":"Point","coordinates":[-86.767681,36.181695]}},{"type":"Feature","properties":{"city":"NASHVILLE","zip":"37214","land_use_description":"SCHOOL OR COLLEGE","radius":"4400","site_name":"McGavock Elementary","address":"275 MCGAVOCK PIKE","siren":"Eclipse 8","mounted_height":"50"},"geometry":{"type":"Point","coordinates":[-86.680006,36.160071]}},{"type":"Feature","properties":{"city":"NASHVILLE","zip":"37206","land_use_description":"PARK OR RECREATION","radius":"4400","site_name":"Eastland Park","address":"0 STRAIGHTWAY AVE","siren":"Eclipse 8","mounted_height":"50"},"geometry":{"type":"Point","coordinates":[-86.739036,36.192567]}},{"type":"Feature","properties":{"city":"ANTIOCH","zip":"37013","land_use_description":"SCHOOL OR COLLEGE","radius":"4400","site_name":"Antioch Community Center","address":"5023 BLUE HOLE RD","siren":"Eclipse 8","mounted_height":"50"},"geometry":{"type":"Point","coordinates":[-86.672662,36.056222]}},{"type":"Feature","properties":{"city":"NASHVILLE","zip":"37207","land_use_description":"SCHOOL OR COLLEGE","radius":"14700","site_name":"Hunters Lane High School","address":"1150 HUNTERS LN","siren":"508","mounted_height":"50"},"geometry":{"type":"Point","coordinates":[-86.751181,36.278281]}},{"type":"Feature","properties":{"city":"NASHVILLE","zip":"37216","land_use_description":"SCHOOL OR COLLEGE","radius":"4400","site_name":"Issac Litton Middle School","address":"4500 GALLATIN PIKE","siren":"Eclipse 8","mounted_height":"50"},"geometry":{"type":"Point","coordinates":[-86.724963,36.228168]}},{"type":"Feature","properties":{"city":"HERMITAGE","zip":"37076","land_use_description":"SCHOOL OR COLLEGE","radius":"4400","site_name":"New Dodson Elementary","address":"4401 CHANDLER RD","siren":"Eclipse 8","mounted_height":"50"},"geometry":{"type":"Point","coordinates":[-86.602812,36.191794]}},{"type":"Feature","properties":{"city":"NASHVILLE","zip":"37208","land_use_description":"SCHOOL OR COLLEGE","radius":"4400","site_name":"Wharton Middle School","address":"1625 DR D B TODD JR BLVD","siren":"Eclipse 8","mounted_height":"50"},"geometry":{"type":"Point","coordinates":[-86.809529,36.175848]}},{"type":"Feature","properties":{"city":"NASHVILLE","zip":"37211","land_use_description":"NURSING HOME","radius":"4400","site_name":"Ezell Road Park","address":"5135 HARDING PL","siren":"Eclipse 8","mounted_height":"50"},"geometry":{"type":"Point","coordinates":[-86.686024,36.090942]}},{"type":"Feature","properties":{"city":"NASHVILLE","zip":"37204","land_use_description":"SCHOOL OR COLLEGE","radius":"4400","site_name":"Glendale Middle School","address":"800 THOMPSON AVE","siren":"Eclipse 8","mounted_height":"50"},"geometry":{"type":"Point","coordinates":[-86.78425,36.095293]}},{"type":"Feature","properties":{"city":"MADISON","zip":"37115","land_use_description":"SCHOOL OR COLLEGE","radius":"4400","site_name":"Neely's Bend Elementary","address":"1300 NEELYS BEND RD","siren":"Eclipse 8","mounted_height":"50"},"geometry":{"type":"Point","coordinates":[-86.673193,36.240332]}},{"type":"Feature","properties":{"city":"NASHVILLE","zip":"37211","land_use_description":"VACANT COMMERCIAL LAND","radius":"4400","site_name":"Thompson Lane & Mill Creek","address":"431 E THOMPSON LN","siren":"Eclipse 8","mounted_height":"50"},"geometry":{"type":"Point","coordinates":[-86.719329,36.116939]}},{"type":"Feature","properties":{"city":"NASHVILLE","zip":"37218","land_use_description":"PARK OR RECREATION","radius":"4400","site_name":"Hartman Park","address":"2801 TUCKER RD","siren":"Eclipse 8","mounted_height":"50"},"geometry":{"type":"Point","coordinates":[-86.824657,36.210374]}},{"type":"Feature","properties":{"city":"BRENTWOOD","zip":"37027","land_use_description":"VACANT RESIDENTIAL LAND","radius":"4400","site_name":"Forest Hills - NES Substation","address":"1958 OLD HICKORY BLVD","siren":"Eclipse 8","mounted_height":"50"},"geometry":{"type":"Point","coordinates":[-86.860204,36.047697]}},{"type":"Feature","properties":{"city":"NASHVILLE","zip":"37218","land_use_description":"SCHOOL OR COLLEGE","radius":"4400","site_name":"Cumberland Elementary","address":"4247 CATO RD","siren":"Eclipse 8","mounted_height":"50"},"geometry":{"type":"Point","coordinates":[-86.866501,36.212523]}},{"type":"Feature","properties":{"city":"NASHVILLE","zip":"37201","land_use_description":"PARK OR RECREATION","radius":"4400","site_name":"Riverfront Park","address":"100 1ST AVE S","siren":"Eclipse 8","mounted_height":"50"},"geometry":{"type":"Point","coordinates":[-86.773944,36.162191]}},{"type":"Feature","properties":{"city":"NASHVILLE","zip":"37207","land_use_description":"PARK OR RECREATION","radius":"4400","site_name":"Parkwood Park","address":"3220 VAILVIEW DR","siren":"Eclipse 8","mounted_height":"50"},"geometry":{"type":"Point","coordinates":[-86.772688,36.235403]}},{"type":"Feature","properties":{"city":"HERMITAGE","zip":"37076","land_use_description":"VACANT RESIDENTIAL LAND","radius":"4400","site_name":"Ruby Major Elementary","address":"5141 JOHN HAGAR RD","siren":"Eclipse 8","mounted_height":"50"},"geometry":{"type":"Point","coordinates":[-86.579075,36.1575]}},{"type":"Feature","properties":{"city":"NASHVILLE","zip":"37205","land_use_description":"CHURCH","radius":"4400","site_name":"West Meade Elementary","address":"6401 HARDING PIKE","siren":"Eclipse 8","mounted_height":"50"},"geometry":{"type":"Point","coordinates":[-86.893443,36.0929]}},{"type":"Feature","properties":{"city":"NASHVILLE","zip":"37211","land_use_description":"SCHOOL OR COLLEGE","radius":"4400","site_name":"Shayne Elementary","address":"6211 NOLENSVILLE PIKE","siren":"Eclipse 8","mounted_height":"50"},"geometry":{"type":"Point","coordinates":[-86.711132,36.020026]}},{"type":"Feature","properties":{"city":"ANTIOCH","zip":"37013","land_use_description":"PARK OR RECREATION","radius":"14700","site_name":"Cane Ridge Park","address":"419 BATTLE RD","siren":"508","mounted_height":"50"},"geometry":{"type":"Point","coordinates":[-86.624219,35.987531]}},{"type":"Feature","properties":{"city":"NASHVILLE","zip":"37210","land_use_description":"SCHOOL OR COLLEGE","radius":"4400","site_name":"Margret Allen Elementary","address":"500 SPENCE LN","siren":"Eclipse 8","mounted_height":"50"},"geometry":{"type":"Point","coordinates":[-86.722286,36.145235]}},{"type":"Feature","properties":{"city":"NASHVILLE","zip":"37211","land_use_description":"FIRE STATION","radius":"14700","site_name":"Fire Station 10","address":"15530 OLD HICKORY BLVD","siren":"508","mounted_height":"50"},"geometry":{"type":"Point","coordinates":[-86.74065,36.040116]}},{"type":"Feature","properties":{"city":"NASHVILLE","zip":"37115","land_use_description":"RIGHT OF WAY","radius":"14700","site_name":"Briarville Rd.","address":"BRIARVILLE RD CULDESAC","siren":"508","mounted_height":"50"},"geometry":{"type":"Point","coordinates":[-86.736018,36.246199]}},{"type":"Feature","properties":{"city":"NASHVILLE","zip":"37207","land_use_description":"SCHOOL OR COLLEGE","radius":"4400","site_name":"Tom Joy Elementary","address":"2201 JONES AVE","siren":"Eclipse 8","mounted_height":"50"},"geometry":{"type":"Point","coordinates":[-86.756984,36.208706]}},{"type":"Feature","properties":{"city":"NASHVILLE","zip":"37210","land_use_description":"VACANT COMMERCIAL LAND","radius":"4400","site_name":"Whitsett Elementary","address":"110 WHITSETT RD","siren":"Eclipse 8","mounted_height":"50"},"geometry":{"type":"Point","coordinates":[-86.737094,36.114779]}},{"type":"Feature","properties":{"city":"NASHVILLE","zip":"37210","land_use_description":"SCHOOL OR COLLEGE","radius":"14700","site_name":"STEM Academy","address":"1134 MENZLER RD","siren":"508","mounted_height":"50"},"geometry":{"type":"Point","coordinates":[-86.740627,36.13024]}},{"type":"Feature","properties":{"city":"ANTIOCH","zip":"37013","land_use_description":"SCHOOL OR COLLEGE","radius":"14700","site_name":"Antioch High School","address":"1900 HOBSON PIKE","siren":"508","mounted_height":"50"},"geometry":{"type":"Point","coordinates":[-86.600296,36.045704]}},{"type":"Feature","properties":{"city":"NASHVILLE","zip":"37215","land_use_description":"METRO OTHER THAN OFC, SCHOOL,HOSP, OR PARK","radius":"14700","site_name":"Percy Warner Park","address":"11 INVERARAY","siren":"508","mounted_height":"50"},"geometry":{"type":"Point","coordinates":[-86.869102,36.081784]}},{"type":"Feature","properties":{"city":"NASHVILLE","zip":"37216","land_use_description":"SCHOOL OR COLLEGE","radius":"4400","site_name":"Liberty Collegiate Academy Middle School","address":"3515 GALLATIN PIKE","siren":"Eclipse 8","mounted_height":"50"},"geometry":{"type":"Point","coordinates":[-86.732971,36.212689]}},{"type":"Feature","properties":{"city":"NASHVILLE","zip":"37214","land_use_description":"FIRE STATION","radius":"14700","site_name":"Fire Station 22","address":"2781 PENNINGTON BEND RD","siren":"508","mounted_height":"50"},"geometry":{"type":"Point","coordinates":[-86.688021,36.216896]}},{"type":"Feature","properties":{"city":"NASHVILLE","zip":"37211","land_use_description":"PARK OR RECREATION","radius":"4400","site_name":"Paragon Mills Park","address":"465 BENITA DR","siren":"Eclipse 8","mounted_height":"50"},"geometry":{"type":"Point","coordinates":[-86.715046,36.09466]}},{"type":"Feature","properties":{"city":"NASHVILLE","zip":"37209","land_use_description":"PARK OR RECREATION","radius":"4400","site_name":"West Park","address":"6109 MORROW RD","siren":"Eclipse 8","mounted_height":"50"},"geometry":{"type":"Point","coordinates":[-86.864118,36.162714]}},{"type":"Feature","properties":{"city":"NASHVILLE","zip":"37203","land_use_description":"PARK OR RECREATION","radius":"4400","site_name":"Nashville Fairgrounds","address":"300 RAINS AVE","siren":"Eclipse 8","mounted_height":"50"},"geometry":{"type":"Point","coordinates":[-86.766859,36.131634]}},{"type":"Feature","properties":{"city":"NASHVILLE","zip":"37220","land_use_description":"RIGHT OF WAY","radius":"14700","site_name":"Granny White Pike","address":"GRANNY WHITE PK & OTTER CREEK DR","siren":"508","mounted_height":"50"},"geometry":{"type":"Point","coordinates":[-86.813182,36.065627]}},{"type":"Feature","properties":{"city":"NASHVILLE","zip":"37205","land_use_description":"SCHOOL OR COLLEGE","radius":"4400","site_name":"Parmer Park","address":"300 LEAKE AVE","siren":"Eclipse 8","mounted_height":"50"},"geometry":{"type":"Point","coordinates":[-86.860037,36.103729]}},{"type":"Feature","properties":{"city":"ANTIOCH","zip":"37013","land_use_description":"PARK OR RECREATION","radius":"14700","site_name":"William A Pitts Park","address":"299 TUSCULUM RD","siren":"508","mounted_height":"50"},"geometry":{"type":"Point","coordinates":[-86.706479,36.056233]}},{"type":"Feature","properties":{"city":"NASHVILLE","zip":"37214","land_use_description":"RECORDING STUDIO","radius":"14700","site_name":"Elm Hill Access","address":"3224 BELL RD","siren":"508","mounted_height":"50"},"geometry":{"type":"Point","coordinates":[-86.629964,36.126468]}},{"type":"Feature","properties":{"city":"NASHVILLE","zip":"37205","land_use_description":"SINGLE FAMILY","radius":"4400","site_name":"Hillwood Pumping Station","address":"231 HILLWOOD BLVD","siren":"Eclipse 8","mounted_height":"50"},"geometry":{"type":"Point","coordinates":[-86.862598,36.127784]}},{"type":"Feature","properties":{"city":"NASHVILLE","zip":"37220","land_use_description":"SCHOOL OR COLLEGE","radius":"4400","site_name":"Crieve Hall Elementary","address":"498 HOGAN RD","siren":"Eclipse 8","mounted_height":"50"},"geometry":{"type":"Point","coordinates":[-86.757179,36.065334]}},{"type":"Feature","properties":{"city":"NASHVILLE","zip":"37220","land_use_description":"VACANT RESIDENTIAL LAND","radius":"4400","site_name":"Oak Hill - Overton High School","address":"4820 FRANKLIN PIKE","siren":"Eclipse 8","mounted_height":"50"},"geometry":{"type":"Point","coordinates":[-86.772741,36.07867]}},{"type":"Feature","properties":{"city":"NASHVILLE","zip":"37210","land_use_description":"SCHOOL OR COLLEGE","radius":"4400","site_name":"Napier Enhanced Option Elementary School","address":"67 FAIRFIELD AVE","siren":"Eclipse 8","mounted_height":"50"},"geometry":{"type":"Point","coordinates":[-86.756866,36.150127]}},{"type":"Feature","properties":{"city":"NASHVILLE","zip":"37217","land_use_description":"PARK OR RECREATION","radius":"14700","site_name":"Seven Oaks Park","address":"3474 MCGAVOCK PIKE","siren":"508","mounted_height":"50"},"geometry":{"type":"Point","coordinates":[-86.695993,36.10963]}},{"type":"Feature","properties":{"city":"ANTIOCH","zip":"37013","land_use_description":"SCHOOL OR COLLEGE","radius":"14700","site_name":"Apollo Jr High School","address":"631 RICHARDS RD","siren":"508","mounted_height":"50"},"geometry":{"type":"Point","coordinates":[-86.665027,36.067173]}},{"type":"Feature","properties":{"city":"NASHVILLE","zip":null,"land_use_description":"RIGHT OF WAY","radius":"14700","site_name":"Ashland City Hwy","address":"ASHLAND CITY HWY & OHB","siren":"508","mounted_height":"50"},"geometry":{"type":"Point","coordinates":[-86.921291,36.21127]}},{"type":"Feature","properties":{"city":"NASHVILLE","zip":"37209","land_use_description":"PARK OR RECREATION","radius":"4400","site_name":"McCabe Park","address":"4601 MURPHY RD","siren":"Eclipse 8","mounted_height":"50"},"geometry":{"type":"Point","coordinates":[-86.842651,36.141191]}},{"type":"Feature","properties":{"city":"NASHVILLE","zip":"37209","land_use_description":"PARK OR RECREATION","radius":"4400","site_name":"Hadley Park","address":"1025 28TH AVE N","siren":"Eclipse 8","mounted_height":"50"},"geometry":{"type":"Point","coordinates":[-86.820478,36.165617]}},{"type":"Feature","properties":{"city":"NASHVILLE","zip":"37206","land_use_description":"SCHOOL OR COLLEGE","radius":"4400","site_name":"Rosebank Elementary","address":"1012 PRESTON DR","siren":"Eclipse 8","mounted_height":"50"},"geometry":{"type":"Point","coordinates":[-86.719248,36.184157]}},{"type":"Feature","properties":{"city":"NASHVILLE","zip":"37217","land_use_description":"SCHOOL OR COLLEGE","radius":"4400","site_name":"Glenview Elementary","address":"1020 PATRICIA DR","siren":"Eclipse 8","mounted_height":"50"},"geometry":{"type":"Point","coordinates":[-86.706604,36.127317]}},{"type":"Feature","properties":{"city":"NASHVILLE","zip":"37207","land_use_description":"PARK OR RECREATION","radius":"4400","site_name":"Cedar Hill Park","address":"860 OLD HICKORY BLVD","siren":"Eclipse 8","mounted_height":"50"},"geometry":{"type":"Point","coordinates":[-86.748106,36.269714]}},{"type":"Feature","properties":{"city":"ANTIOCH","zip":"37013","land_use_description":"VACANT RURAL LAND","radius":"4400","site_name":"Maxwell Elementary","address":"5535 BLUE HOLE RD","siren":"Eclipse 8","mounted_height":"50"},"geometry":{"type":"Point","coordinates":[-86.673643,36.03152]}},{"type":"Feature","properties":{"city":"NASHVILLE","zip":"37228","land_use_description":"GOLF COURSE/DRIVING RANGE","radius":"4400","site_name":"Ted Rhodes Golf Course","address":"720 MAINSTREAM DR","siren":"Eclipse 8","mounted_height":"50"},"geometry":{"type":"Point","coordinates":[-86.817641,36.194141]}},{"type":"Feature","properties":{"city":"NASHVILLE","zip":"37221","land_use_description":"SCHOOL OR COLLEGE","radius":"4400","site_name":"Harpeth Valley Elementary","address":"7840 LEARNING LN","siren":"Eclipse 8","mounted_height":"50"},"geometry":{"type":"Point","coordinates":[-86.957236,36.045324]}},{"type":"Feature","properties":{"city":"JOELTON","zip":"37080","land_use_description":"SCHOOL OR COLLEGE","radius":"14700","site_name":"Joelton Elementary","address":"7107 WHITES CREEK PIKE","siren":"508","mounted_height":"50"},"geometry":{"type":"Point","coordinates":[-86.866331,36.316156]}},{"type":"Feature","properties":{"city":"NASHVILLE","zip":"37215","land_use_description":"SCHOOL OR COLLEGE","radius":"4400","site_name":"Hillsboro High School","address":"3812 HILLSBORO PIKE","siren":"Eclipse 8","mounted_height":"50"},"geometry":{"type":"Point","coordinates":[-86.812893,36.106993]}},{"type":"Feature","properties":{"city":"GOODLETTSVILLE","zip":"37072","land_use_description":"VACANT RESIDENTIAL LAND","radius":"14700","site_name":"Peay Memorial Park","address":"111 MEMORIAL DR","siren":"508","mounted_height":"50"},"geometry":{"type":"Point","coordinates":[-86.718285,36.321052]}},{"type":"Feature","properties":{"city":"NASHVILLE","zip":"37212","land_use_description":"PARK OR RECREATION","radius":"4400","site_name":"Fannie May Dees Park","address":"2401 BLAKEMORE AVE","siren":"Eclipse 8","mounted_height":"50"},"geometry":{"type":"Point","coordinates":[-86.805511,36.136116]}},{"type":"Feature","properties":{"city":"NASHVILLE","zip":"37215","land_use_description":"RIGHT OF WAY","radius":"14700","site_name":"McCrory Ln","address":"MCCRORY LN & NEWSOME STATION RD","siren":"508","mounted_height":"50"},"geometry":{"type":"Point","coordinates":[-87.022365,36.079]}},{"type":"Feature","properties":{"city":"NASHVILLE","zip":"37203","land_use_description":"METRO OTHER THAN OFC, SCHOOL,HOSP, OR PARK","radius":"4400","site_name":"Arena","address":"501 BROADWAY","siren":"Eclipse 8","mounted_height":"50"},"geometry":{"type":"Point","coordinates":[-86.778618,36.1601]}},{"type":"Feature","properties":{"city":"BRENTWOOD","zip":"37027","land_use_description":"SCHOOL OR COLLEGE","radius":"4400","site_name":"Granberry Elementary","address":"5501 HILL RD","siren":"Eclipse 8","mounted_height":"50"},"geometry":{"type":"Point","coordinates":[-86.753006,36.044835]}},{"type":"Feature","properties":{"city":"NASHVILLE","zip":"37215","land_use_description":"FIRE STATION","radius":"14700","site_name":"Fire Station 20","address":"1630 HARDING PL","siren":"508","mounted_height":"50"},"geometry":{"type":"Point","coordinates":[-86.826798,36.092036]}},{"type":"Feature","properties":{"city":"OLD HICKORY","zip":"37138","land_use_description":"LIGHT MANUFACTURING","radius":"14700","site_name":"Old Hickory Beach Park","address":"1002 INDUSTRIAL DR","siren":"508","mounted_height":"50"},"geometry":{"type":"Point","coordinates":[-86.668884,36.277161]}},{"type":"Feature","properties":{"city":"NASHVILLE","zip":"37221","land_use_description":"PARK OR RECREATION","radius":"14700","site_name":"Edwin Warner Park","address":"2547 OLD HICKORY BLVD","siren":"508","mounted_height":"50"},"geometry":{"type":"Point","coordinates":[-86.897641,36.05337]}},{"type":"Feature","properties":{"city":"NASHVILLE","zip":"37211","land_use_description":"PARK OR RECREATION","radius":"4400","site_name":"William Whitfield Park","address":"5101 EDMONDSON PIKE","siren":"Eclipse 8","mounted_height":"50"},"geometry":{"type":"Point","coordinates":[-86.738525,36.065901]}},{"type":"Feature","properties":{"city":"NASHVILLE","zip":"37205","land_use_description":"SCHOOL OR COLLEGE","radius":"4400","site_name":"West End Middle School","address":"210 ELMINGTON AVE","siren":"Eclipse 8","mounted_height":"50"},"geometry":{"type":"Point","coordinates":[-86.825294,36.131861]}},{"type":"Feature","properties":{"city":"GOODLETTSVILLE","zip":"37072","land_use_description":"VACANT COMMERCIAL LAND","radius":"14700","site_name":"Conference Drive @ Vietnam Veterans","address":"0 CONFERENCE DR","siren":"508","mounted_height":"50"},"geometry":{"type":"Point","coordinates":[-86.694702,36.306705]}},{"type":"Feature","properties":{"city":"GOODLETTSVILLE","zip":"37072","land_use_description":"METRO OTHER THAN OFC, SCHOOL,HOSP, OR PARK","radius":"14700","site_name":"Greer Rd Water Tank","address":"1770 UNION HILL RD","siren":"508","mounted_height":"50"},"geometry":{"type":"Point","coordinates":[-86.785535,36.337699]}},{"type":"Feature","properties":{"city":"NASHVILLE","zip":"37221","land_use_description":"RIGHT OF WAY","radius":"14700","site_name":"Coley Davis @ Harpeth Springs Dr.","address":"3000 HARPETH SPRINGS DR","siren":"508","mounted_height":"50"},"geometry":{"type":"Point","coordinates":[-86.976254,36.073439]}},{"type":"Feature","properties":{"city":"HERMITAGE","zip":"37076","land_use_description":"PARK OR RECREATION","radius":"14700","site_name":"Anderson Rd","address":"ANDERSON RD  & COUCHVILLE PIKE","siren":"508","mounted_height":"50"},"geometry":{"type":"Point","coordinates":[-86.601801,36.107477]}}]
}